COSMOS 2407             
1 28380U 04028A   26115.94193025  .00000083  00000+0  68457-4 0  9997
2 28380  82.9567 113.5308 0040205  40.1953  22.6363 13.76329984 92694
COSMOS 2414             
1 28521U 05002A   26115.91031511  .00000093  00000+0  64014-4 0  9991
2 28521  82.9474  83.1867 0041387 117.4093 243.1290 13.87920554 76564
COSMOS 2463             
1 36519U 10017A   26115.97137008  .00000061  00000+0  51671-4 0  9993
2 36519  82.9570 288.0793 0034795 275.1458 195.3332 13.71662097800774
