[{"OBJECT_NAME":"COSMOS 2407","OBJECT_ID":"2004-028A","EPOCH":"2026-04-25T22:36:22.773600","MEAN_MOTION":13.76329984,"ECCENTRICITY":0.00402058,"INCLINATION":82.9567,"RA_OF_ASC_NODE":113.5308,"ARG_OF_PERICENTER":40.1953,"MEAN_ANOMALY":22.6363,"EPHEMERIS_TYPE":0,"CLASSIFICATION_TYPE":"U","NORAD_CAT_ID":28380,"ELEMENT_SET_NO":999,"REV_AT_EPOCH":9269,"BSTAR":6.84565e-5,"MEAN_MOTION_DOT":8.3e-7,"MEAN_MOTION_DDOT":0},{"OBJECT_NAME":"COSMOS 2414","OBJECT_ID":"2005-002A","EPOCH":"2026-04-25T21:50:51.225504","MEAN_MOTION":13.87920554,"ECCENTRICITY":0.00413873,"INCLINATION":82.9474,"RA_OF_ASC_NODE":83.1867,"ARG_OF_PERICENTER":117.4093,"MEAN_ANOMALY":243.129,"EPHEMERIS_TYPE":0,"CLASSIFICATION_TYPE":"U","NORAD_CAT_ID":28521,"ELEMENT_SET_NO":999,"REV_AT_EPOCH":7656,"BSTAR":6.4013858e-5,"MEAN_MOTION_DOT":9.3e-7,"MEAN_MOTION_DDOT":0},{"OBJECT_NAME":"COSMOS 2463","OBJECT_ID":"2010-017A","EPOCH":"2026-04-25T23:18:46.374912","MEAN_MOTION":13.71662097,"ECCENTRICITY":0.00347957,"INCLINATION":82.957,"RA_OF_ASC_NODE":288.0793,"ARG_OF_PERICENTER":275.1458,"MEAN_ANOMALY":195.3332,"EPHEMERIS_TYPE":0,"CLASSIFICATION_TYPE":"U","NORAD_CAT_ID":36519,"ELEMENT_SET_NO":999,"REV_AT_EPOCH":80077,"BSTAR":5.1670666e-5,"MEAN_MOTION_DOT":6.1e-7,"MEAN_MOTION_DDOT":0}]
